{"epoch":1784799577,"count":18318,"objects":[{"id":"44299","name":"COSMOS 2534 (GLONASS)","type":"PAYLOAD","l1":"1 44299U 19030A   26203.13389427  .00000093  00000-0  00000-0 0  9993","l2":"2 44299  64.3713 191.4397 0013438 275.2090  33.8854  2.13102306 55663"},{"id":"44337","name":"BEIDOU 3 IGSO-2","type":"PAYLOAD","l1":"1 44337U 19035A   26202.76760661 -.00000106  00000-0  00000-0 0  9998","l2":"2 44337  55.2573 158.5594 0039051 212.8700 322.7485  1.00289985 26017"},{"id":"44506","name":"NAVSTAR 78 (USA 293)","type":"PAYLOAD","l1":"1 44506U 19056A   26203.78587352 -.00000112  00000-0  00000-0 0  9993","l2":"2 44506  55.6178 329.7278 0063753 198.2915 333.8944  2.00570518 50782"},{"id":"44542","name":"BEIDOU 3M23","type":"PAYLOAD","l1":"1 44542U 19061A   26203.68139950  .00000076  00000-0  00000-0 0  9993","l2":"2 44542  54.3972 181.5308 0008747   0.3331 359.6504  1.86229301 46456"},{"id":"44543","name":"BEIDOU 3M24","type":"PAYLOAD","l1":"1 44543U 19061B   26203.81878547  .00000075  00000-0  00000-0 0  9990","l2":"2 44543  54.3962 181.4944 0006013 341.9460  21.5168  1.86227471 46460"},{"id":"44624","name":"EUTE 5W B","type":"PAYLOAD","l1":"1 44624U 19067A   26203.89834095 -.00000038  00000-0  00000-0 0  9994","l2":"2 44624   0.0727 326.9758 0003282 152.7469 139.3042  1.00272092 24794"},{"id":"44793","name":"BEIDOU 3M21","type":"PAYLOAD","l1":"1 44793U 19078A   26201.91091067 -.00000098  00000-0  00000-0 0  9994","l2":"2 44793  53.9028 298.6402 0005603  50.2813 309.8054  1.86227204 45279"},{"id":"44794","name":"BEIDOU 3M22","type":"PAYLOAD","l1":"1 44794U 19078B   26200.97683179 -.00000096  00000-0  00000-0 0  9999","l2":"2 44794  53.8770 298.6333 0003525  49.7600 310.3090  1.86227606 45266"},{"id":"44850","name":"COSMOS 2544 (GLONASS)","type":"PAYLOAD","l1":"1 44850U 19088A   26199.93909424 -.00000038  00000-0  00000-0 0  9996","l2":"2 44850  65.5828  72.6716 0012050 253.1294 106.8089  2.13102904 51392"},{"id":"44864","name":"BEIDOU 3M19","type":"PAYLOAD","l1":"1 44864U 19090A   26203.09769958 -.00000079  00000-0  00000-0 0  9998","l2":"2 44864  56.5900  61.6363 0016555 296.8524 242.7354  1.86231513 44887"},{"id":"44865","name":"BEIDOU 3M20","type":"PAYLOAD","l1":"1 44865U 19090B   26202.96464863 -.00000079  00000-0  00000-0 0  9991","l2":"2 44865  56.5915  61.6754 0014231 312.1692 227.7948  1.86231478 44865"},{"id":"45344","name":"BEIDOU 3 G2","type":"PAYLOAD","l1":"1 45344U 20017A   26203.91531028 -.00000138  00000-0  00000-0 0  9995","l2":"2 45344   2.9351  47.8455 0002105  58.0055 244.3472  1.00272671 23610"},{"id":"45358","name":"COSMOS 2545 (GLONASS)","type":"PAYLOAD","l1":"1 45358U 20018A   26203.88809806 -.00000089  00000-0  00000-0 0  9994","l2":"2 45358  64.3314 311.1635 0009943 230.3379 129.5965  2.13102496 49424"},{"id":"45807","name":"BEIDOU 3 G3","type":"PAYLOAD","l1":"1 45807U 20040A   26203.92137698 -.00000352  00000-0  00000-0 0  9999","l2":"2 45807   2.5331  67.5034 0002281 316.6925 358.7118  1.00273231 22422"},{"id":"45854","name":"NAVSTAR 79 (USA 304)","type":"PAYLOAD","l1":"1 45854U 20041A   26203.87491671 -.00000079  00000-0  00000-0 0  9996","l2":"2 45854  56.6939  27.5596 0065610 204.6648 328.6198  2.00558039 44757"},{"id":"46114","name":"GALAXY 30","type":"PAYLOAD","l1":"1 46114U 20056C   26203.73794698  .00000041  00000-0  00000-0 0  9990","l2":"2 46114   0.0146  67.1236 0002244  50.6582 323.3470  1.00271378 21646"},{"id":"46805","name":"COSMOS 2547 (GLONASS)","type":"PAYLOAD","l1":"1 46805U 20075A   26201.26230815  .00000083  00000-0  00000-0 0  9996","l2":"2 46805  64.6016 191.3717 0009466 239.9348 119.9732  2.13099966 44612"},{"id":"46826","name":"NAVSTAR 80 (USA 309)","type":"PAYLOAD","l1":"1 46826U 20078A   26203.40249986  .00000084  00000-0  00000-0 0  9990","l2":"2 46826  53.9765 209.3500 0074708 207.9626 321.8106  2.00565122 42213"},{"id":"48859","name":"NAVSTAR 81 (USA 319)","type":"PAYLOAD","l1":"1 48859U 21054A   26203.41991022 -.00000113  00000-0  00000-0 0  9993","l2":"2 48859  55.1554 331.0432 0026666 228.6022 140.0987  2.00567016 37461"},{"id":"49336","name":"QZS-1R","type":"PAYLOAD","l1":"1 49336U 21096A   26200.56101544 -.00000322  00000-0  00000-0 0  9997","l2":"2 49336  37.5263  79.1015 0755512 272.3091 279.1178  1.00244085 17338"},{"id":"49809","name":"GALILEO 27 (223)","type":"PAYLOAD","l1":"1 49809U 21116A   26203.48190089 -.00000107  00000-0  00000-0 0  9992","l2":"2 49809  57.1475 340.7222 0002506 195.3315 345.6811  1.70476501 28785"},{"id":"49810","name":"GALILEO 28 (224)","type":"PAYLOAD","l1":"1 49810U 21116B   26203.88081072 -.00000106  00000-0  00000-0 0  9998","l2":"2 49810  57.1470 340.7101 0002029 183.2200 355.2473  1.70476615 28818"},{"id":"52984","name":"COSMOS 2557 (GLONASS)","type":"PAYLOAD","l1":"1 52984U 22075A   26201.89567594 -.00000088  00000-0  00000-0 0  9995","l2":"2 52984  64.2766 313.2973 0010828 270.8513  89.0451  2.13102143 31439"},{"id":"54031","name":"COSMOS 2559 (GLONASS)","type":"PAYLOAD","l1":"1 54031U 22130A   26202.18464193 -.00000089  00000-0  00000-0 0  9997","l2":"2 54031  64.2489 313.3698 0013171 181.7048 178.3110  2.13101788 29411"},{"id":"54377","name":"COSMOS 2564 (GLONASS)","type":"PAYLOAD","l1":"1 54377U 22161A   26202.96626008  .00000094  00000-0  00000-0 0  9990","l2":"2 54377  64.7442 191.5572 0012170 224.6979 135.2103  2.13102079 28375"},{"id":"55268","name":"NAVSTAR 82 (USA 343)","type":"PAYLOAD","l1":"1 55268U 23009A   26201.60569105  .00000029  00000-0  00000-0 0  9994","l2":"2 55268  55.1257 147.2053 0005287 339.0004 198.4380  2.00569363 25910"},{"id":"56564","name":"BEIDOU 3 G4","type":"PAYLOAD","l1":"1 56564U 23066A   26203.92718367 -.00000276  00000-0  00000-0 0  9995","l2":"2 56564   0.4545 341.1324 0005155 182.5482 250.8292  1.00270565 11758"},{"id":"56759","name":"NVS-01","type":"PAYLOAD","l1":"1 56759U 23076A   26203.92510366 -.00000330  00000-0  00000-0 0  9992","l2":"2 56759   2.0840 242.7167 0002923  17.3142 143.1804  1.00275450 11479"},{"id":"57517","name":"COSMOS 2569 (GLONASS)","type":"PAYLOAD","l1":"1 57517U 23114A   26202.50927394 -.00000053  00000-0  00000-0 0  9996","l2":"2 57517  65.3220  71.4633 0009466 295.3236  64.6448  2.13103851 22992"},{"id":"58654","name":"BEIDOU 3 M28","type":"PAYLOAD","l1":"1 58654U 23207A   26202.66461816 -.00000081  00000-0  00000-0 0  9992","l2":"2 58654  55.7837  61.1401 0002214   9.0129 351.0521  1.86229818 17480"},{"id":"58655","name":"BEIDOU 3 M26","type":"PAYLOAD","l1":"1 58655U 23207B   26203.53603147 -.00000079  00000-0  00000-0 0  9992","l2":"2 58655  55.7870  61.0974 0001649 323.4621  36.5888  1.86229852 17482"}]}